start=new Date('2022-04-01T00:00:00.000Z').valueOf();
sats=[{"ARG_OF_PERICENTER":"69.3132","NORAD_CAT_ID":"44766","OBJECT_ID":"2019-074BF","ELEMENT_SET_NO":"999","FILE":"3381849","RA_OF_ASC_NODE":"207.1867","ECCENTRICITY":"0.00012720","PERIAPSIS":"546.327","EPHEMERIS_TYPE":"0","BSTAR":"0.00054502000000","SEMIMAJOR_AXIS":"6925.343","COUNTRY_CODE":"US","INCLINATION":"53.0551","EPOCH":"2022-03-31T13:04:20.639712","RCS_SIZE":"LARGE","MEAN_MOTION_DDOT":"0.0000000000000","REV_AT_EPOCH":"13128","MEAN_ANOMALY":"290.7993","SITE":"AFETR","OBJECT_NAME":"STARLINK-1061","GP_ID":"200144583","APOAPSIS":"548.089","OBJECT_TYPE":"PAYLOAD","CLASSIFICATION_TYPE":"U","MEAN_MOTION":"15.06401800","TLE_LINE2":"2 44766  53.0551 207.1867 0001272  69.3132 290.7993 15.06401800131284","MEAN_MOTION_DOT":"0.00007846","TIME_SYSTEM":"UTC","REF_FRAME":"TEME","DECAY_DATE":null,"TLE_LINE1":"1 44766U 19074BF  22090.54468333  .00007846  00000-0  54502-3 0  9991","CENTER_NAME":"EARTH","PERIOD":"95.592","MEAN_ELEMENT_THEORY":"SGP4","LAUNCH_DATE":"2019-11-11"},{"CENTER_NAME":"EARTH","PERIOD":"95.592","MEAN_ELEMENT_THEORY":"SGP4","LAUNCH_DATE":"2019-11-11","DECAY_DATE":null,"TLE_LINE1":"1 44767U 19074BG  22090.53731657  .00006036  00000-0  42369-3 0  9991","MEAN_MOTION":"15.06407923","TLE_LINE2":"2 44767  53.0533 207.2113 0001439  71.5621 288.5525 15.06407923131281","MEAN_MOTION_DOT":"0.00006036","TIME_SYSTEM":"UTC","REF_FRAME":"TEME","OBJECT_NAME":"STARLINK-1062","GP_ID":"200144819","APOAPSIS":"548.186","OBJECT_TYPE":"PAYLOAD","CLASSIFICATION_TYPE":"U","MEAN_ANOMALY":"288.5525","SITE":"AFETR","MEAN_MOTION_DDOT":"0.0000000000000","RCS_SIZE":"LARGE","EPOCH":"2022-03-31T12:53:44.151648","REV_AT_EPOCH":"13128","ECCENTRICITY":"0.00014390","EPHEMERIS_TYPE":"0","PERIAPSIS":"546.193","BSTAR":"0.00042369000000","COUNTRY_CODE":"US","SEMIMAJOR_AXIS":"6925.324","INCLINATION":"53.0533","ARG_OF_PERICENTER":"71.5621","NORAD_CAT_ID":"44767","OBJECT_ID":"2019-074BG","ELEMENT_SET_NO":"999","RA_OF_ASC_NODE":"207.2113","FILE":"3381849"},{"BSTAR":"-0.00191170000000","EPHEMERIS_TYPE":"0","PERIAPSIS":"545.980","ECCENTRICITY":"0.00027650","INCLINATION":"53.0537","SEMIMAJOR_AXIS":"6926.030","COUNTRY_CODE":"US","NORAD_CAT_ID":"44768","ARG_OF_PERICENTER":"71.1778","FILE":"3382047","RA_OF_ASC_NODE":"206.2223","ELEMENT_SET_NO":"999","OBJECT_ID":"2019-074BH","SITE":"AFETR","MEAN_ANOMALY":"288.9511","MEAN_MOTION_DDOT":"0.0000000000000","RCS_SIZE":"LARGE","EPOCH":"2022-03-31T18:12:27.984672","REV_AT_EPOCH":"13148","MEAN_MOTION":"15.06177715","MEAN_MOTION_DOT":"-0.00028475","TIME_SYSTEM":"UTC","REF_FRAME":"TEME","TLE_LINE2":"2 44768  53.0537 206.2223 0002765  71.1778 288.9511 15.06177715131483","GP_ID":"200154019","OBJECT_NAME":"STARLINK-1063","CLASSIFICATION_TYPE":"U","OBJECT_TYPE":"PAYLOAD","APOAPSIS":"549.810","CENTER_NAME":"EARTH","LAUNCH_DATE":"2019-11-11","MEAN_ELEMENT_THEORY":"SGP4","PERIOD":"95.606","TLE_LINE1":"1 44768U 19074BH  22090.75865723 -.00028475  00000-0 -19117-2 0  9995","DECAY_DATE":null},{"TLE_LINE2":"2 44770  53.0014 196.4425 0000213  82.8581 277.2433 15.12188328131570","MEAN_MOTION_DOT":"0.00035945","REF_FRAME":"TEME","TIME_SYSTEM":"UTC","MEAN_MOTION":"15.12188328","OBJECT_TYPE":"PAYLOAD","CLASSIFICATION_TYPE":"U","APOAPSIS":"529.677","GP_ID":"200117888","OBJECT_NAME":"STARLINK-1065","MEAN_ELEMENT_THEORY":"SGP4","LAUNCH_DATE":"2019-11-11","PERIOD":"95.226","CENTER_NAME":"EARTH","TLE_LINE1":"1 44770U 19074BK  22090.56946297  .00035945  00000-0  20654-2 0  9999","DECAY_DATE":null,"COUNTRY_CODE":"US","SEMIMAJOR_AXIS":"6907.665","INCLINATION":"53.0014","PERIAPSIS":"529.383","EPHEMERIS_TYPE":"0","BSTAR":"0.00206540000000","ECCENTRICITY":"0.00002130","RA_OF_ASC_NODE":"196.4425","FILE":"3381555","OBJECT_ID":"2019-074BK","ELEMENT_SET_NO":"999","NORAD_CAT_ID":"44770","ARG_OF_PERICENTER":"82.8581","MEAN_ANOMALY":"277.2433","SITE":"AFETR","REV_AT_EPOCH":"13157","MEAN_MOTION_DDOT":"0.0000000000000","RCS_SIZE":"LARGE","EPOCH":"2022-03-31T13:40:01.600608"},{"CENTER_NAME":"EARTH","LAUNCH_DATE":"2019-11-11","MEAN_ELEMENT_THEORY":"SGP4","PERIOD":"95.590","TLE_LINE1":"1 44771U 19074BL  22090.54834246  .00005027  00000-0  35582-3 0  9993","DECAY_DATE":null,"MEAN_MOTION":"15.06431100","MEAN_MOTION_DOT":"0.00005027","TIME_SYSTEM":"UTC","REF_FRAME":"TEME","TLE_LINE2":"2 44771  53.0541 207.1684 0001649  56.9678 303.1469 15.06431100131284","GP_ID":"200144090","OBJECT_NAME":"STARLINK-1067","CLASSIFICATION_TYPE":"U","OBJECT_TYPE":"PAYLOAD","APOAPSIS":"548.260","SITE":"AFETR","MEAN_ANOMALY":"303.1469","EPOCH":"2022-03-31T13:09:36.788544","RCS_SIZE":"LARGE","MEAN_MOTION_DDOT":"0.0000000000000","REV_AT_EPOCH":"13128","BSTAR":"0.00035582000000","PERIAPSIS":"545.976","EPHEMERIS_TYPE":"0","ECCENTRICITY":"0.00016490","INCLINATION":"53.0541","COUNTRY_CODE":"US","SEMIMAJOR_AXIS":"6925.253","NORAD_CAT_ID":"44771","ARG_OF_PERICENTER":"56.9678","FILE":"3381849","RA_OF_ASC_NODE":"207.1684","ELEMENT_SET_NO":"999","OBJECT_ID":"2019-074BL"},{"TLE_LINE2":"2 44772  53.0545 187.2237 0001515  67.3772 292.7378 15.06393564131557","MEAN_MOTION_DOT":"0.00001564","REF_FRAME":"TEME","TIME_SYSTEM":"UTC","MEAN_MOTION":"15.06393564","APOAPSIS":"548.282","OBJECT_TYPE":"PAYLOAD","CLASSIFICATION_TYPE":"U","OBJECT_NAME":"STARLINK-1068","GP_ID":"200144326","PERIOD":"95.593","MEAN_ELEMENT_THEORY":"SGP4","LAUNCH_DATE":"2019-11-11","CENTER_NAME":"EARTH","DECAY_DATE":null,"TLE_LINE1":"1 44772U 19074BM  22090.53916604  .00001564  00000-0  12387-3 0  9992","SEMIMAJOR_AXIS":"6925.368","COUNTRY_CODE":"US","INCLINATION":"53.0545","ECCENTRICITY":"0.00015150","EPHEMERIS_TYPE":"0","PERIAPSIS":"546.184","BSTAR":"0.00012387000000","OBJECT_ID":"2019-074BM","ELEMENT_SET_NO":"999","FILE":"3381849","RA_OF_ASC_NODE":"187.2237","ARG_OF_PERICENTER":"67.3772","NORAD_CAT_ID":"44772","MEAN_ANOMALY":"292.7378","SITE":"AFETR","REV_AT_EPOCH":"13155","MEAN_MOTION_DDOT":"0.0000000000000","RCS_SIZE":"LARGE","EPOCH":"2022-03-31T12:56:23.945856"},{"DECAY_DATE":null,"TLE_LINE1":"1 44914U 20001A   22090.82114481  .00002469  00000-0  18468-3 0  9998","PERIOD":"95.593","LAUNCH_DATE":"2020-01-07","MEAN_ELEMENT_THEORY":"SGP4","CENTER_NAME":"EARTH","APOAPSIS":"548.371","CLASSIFICATION_TYPE":"U","OBJECT_TYPE":"PAYLOAD","OBJECT_NAME":"STARLINK-1073","GP_ID":"200157348","MEAN_MOTION_DOT":"0.00002469","TIME_SYSTEM":"UTC","REF_FRAME":"TEME","TLE_LINE2":"2 44914  53.0550 325.9451 0001610  67.4438 292.6721 15.06386045122979","MEAN_MOTION":"15.06386045","REV_AT_EPOCH":"12297","RCS_SIZE":"LARGE","MEAN_MOTION_DDOT":"0.0000000000000","EPOCH":"2022-03-31T19:42:26.911584","SITE":"AFETR","MEAN_ANOMALY":"292.6721","ELEMENT_SET_NO":"999","OBJECT_ID":"2020-001A","RA_OF_ASC_NODE":"325.9451","FILE":"3382179","ARG_OF_PERICENTER":"67.4438","NORAD_CAT_ID":"44914","INCLINATION":"53.0550","COUNTRY_CODE":"US","SEMIMAJOR_AXIS":"6925.391","ECCENTRICITY":"0.00016100","BSTAR":"0.00018468000000","PERIAPSIS":"546.141","EPHEMERIS_TYPE":"0"},{"TLE_LINE2":"2 44915  53.0534 325.8074 0001374  69.8555 290.2581 15.06403131122980","MEAN_MOTION_DOT":"0.00007008","REF_FRAME":"TEME","TIME_SYSTEM":"UTC","MEAN_MOTION":"15.06403131","APOAPSIS":"548.156","OBJECT_TYPE":"PAYLOAD","CLASSIFICATION_TYPE":"U","OBJECT_NAME":"STARLINK-1084","GP_ID":"200156961","PERIOD":"95.592","MEAN_ELEMENT_THEORY":"SGP4","LAUNCH_DATE":"2020-01-07","CENTER_NAME":"EARTH","DECAY_DATE":null,"TLE_LINE1":"1 44915U 20001B   22090.85061955  .00007008  00000-0  48886-3 0  9990","COUNTRY_CODE":"US","SEMIMAJOR_AXIS":"6925.339","INCLINATION":"53.0534","ECCENTRICITY":"0.00013740","EPHEMERIS_TYPE":"0","PERIAPSIS":"546.252","BSTAR":"0.00048886000000","OBJECT_ID":"2020-001B","ELEMENT_SET_NO":"999","FILE":"3382184","RA_OF_ASC_NODE":"325.8074","ARG_OF_PERICENTER":"69.8555","NORAD_CAT_ID":"44915","MEAN_ANOMALY":"290.2581","SITE":"AFETR","REV_AT_EPOCH":"12298","RCS_SIZE":"LARGE","EPOCH":"2022-03-31T20:24:53.529120","MEAN_MOTION_DDOT":"0.0000000000000"},{"MEAN_MOTION":"15.06399908","MEAN_MOTION_DOT":"0.00000729","REF_FRAME":"TEME","TIME_SYSTEM":"UTC","TLE_LINE2":"2 44917  53.0558 327.8844 0001425  66.4719 293.6420 15.06399908122915","OBJECT_NAME":"STARLINK-1098","GP_ID":"200144598","APOAPSIS":"548.201","CLASSIFICATION_TYPE":"U","OBJECT_TYPE":"PAYLOAD","CENTER_NAME":"EARTH","PERIOD":"95.592","LAUNCH_DATE":"2020-01-07","MEAN_ELEMENT_THEORY":"SGP4","DECAY_DATE":null,"TLE_LINE1":"1 44917U 20001D   22090.38987744  .00000729  00000-0  67858-4 0  9997","ECCENTRICITY":"0.00014250","BSTAR":"0.00006785800000","EPHEMERIS_TYPE":"0","PERIAPSIS":"546.227","INCLINATION":"53.0558","SEMIMAJOR_AXIS":"6925.349","COUNTRY_CODE":"US","ARG_OF_PERICENTER":"66.4719","NORAD_CAT_ID":"44917","ELEMENT_SET_NO":"999","OBJECT_ID":"2020-001D","FILE":"3381849","RA_OF_ASC_NODE":"327.8844","SITE":"AFETR","MEAN_ANOMALY":"293.6420","MEAN_MOTION_DDOT":"0.0000000000000","RCS_SIZE":"LARGE","EPOCH":"2022-03-31T09:21:25.410816","REV_AT_EPOCH":"12291"},{"COUNTRY_CODE":"US","SEMIMAJOR_AXIS":"6925.343","INCLINATION":"53.0525","ECCENTRICITY":"0.00014570","EPHEMERIS_TYPE":"0","PERIAPSIS":"546.199","BSTAR":"0.00014510000000","OBJECT_ID":"2020-001E","ELEMENT_SET_NO":"999","FILE":"3382185","RA_OF_ASC_NODE":"326.0496","ARG_OF_PERICENTER":"57.0987","NORAD_CAT_ID":"44918","MEAN_ANOMALY":"303.0142","SITE":"AFETR","REV_AT_EPOCH":"12371","EPOCH":"2022-03-31T19:10:35.069664","RCS_SIZE":"LARGE","MEAN_MOTION_DDOT":"0.0000000000000","TLE_LINE2":"2 44918  53.0525 326.0496 0001457  57.0987 303.0142 15.06401727123711","MEAN_MOTION_DOT":"0.00001881","REF_FRAME":"TEME","TIME_SYSTEM":"UTC","MEAN_MOTION":"15.06401727","APOAPSIS":"548.217","OBJECT_TYPE":"PAYLOAD","CLASSIFICATION_TYPE":"U","OBJECT_NAME":"STARLINK-1099","GP_ID":"200156980","PERIOD":"95.592","MEAN_ELEMENT_THEORY":"SGP4","LAUNCH_DATE":"2020-01-07","CENTER_NAME":"EARTH","DECAY_DATE":null,"TLE_LINE1":"1 44918U 20001E   22090.79901701  .00001881  00000-0  14510-3 0  9998"}];
